GLOBALSTAR M075         
1 37192U 10054E   25253.11896605 -.00000088  00000+0  87634-4 0  9993
2 37192  51.9942 282.9418 0000353 106.4174 272.6012 12.62267653686574
GLOBALSTAR M073         
1 37193U 10054F   25253.22502604 -.00000097  00000+0  39601-4 0  9990
2 37193  52.0048 196.4994 0000541  80.8431  60.1851 12.62262448688572
GLOBALSTAR M083         
1 37739U 11033A   25253.16436567 -.00000071  00000+0  18560-3 0  9993
2 37739  51.9850 145.2999 0000807  70.7279  94.3229 12.62275541657580
GLOBALSTAR M088         
1 37740U 11033B   25252.64438213 -.00000111  00000+0 -38293-4 0  9999
2 37740  52.0223  52.6284 0000758  82.9505 357.9141 12.62267872653066
GLOBALSTAR M091         
1 37741U 11033C   25252.66228501 -.00000104  00000+0 -10859-5 0  9990
2 37741  52.0026  15.9525 0000871  85.5756  18.0613 12.62270030653857
GLOBALSTAR M085         
1 37742U 11033D   25253.18602148 -.00000075  00000+0  15820-3 0  9999
2 37742  52.0150 325.4100 0000691  91.2983 292.9567 12.62264564654431
GLOBALSTAR M081         
1 37743U 11033E   25253.21138672 -.00000082  00000+0  12182-3 0  9996
2 37743  51.9980 328.0884 0000716 110.0760 268.5639 12.62267975654584
GLOBALSTAR M089         
1 37744U 11033F   25253.09616199 -.00000086  00000+0  10071-3 0  9997
2 37744  51.9923 282.6509 0000305 149.7014 245.9522 12.62266507655419
